CCSDS_OMM_VERS = 2.0
CREATION_DATE  = 
ORIGINATOR     = 

OBJECT_NAME    = STARLINK-36674
OBJECT_ID      = 2026-022P
CENTER_NAME    = EARTH
REF_FRAME      = TEME
TIME_SYSTEM    = UTC
MEAN_ELEMENT_THEORY = SGP/SGP4

EPOCH          = 2026-02-26T02:02:35.238048
MEAN_MOTION    = 15.75277583
ECCENTRICITY   = .0001587
INCLINATION    = 97.2846
RA_OF_ASC_NODE = 90.5129
ARG_OF_PERICENTER = 118.6193
MEAN_ANOMALY   = 241.5232

EPHEMERIS_TYPE = 0
CLASSIFICATION_TYPE = U
NORAD_CAT_ID   = 67661
ELEMENT_SET_NO = 999
REV_AT_EPOCH   = 372
BSTAR          = .17137E-2
MEAN_MOTION_DOT = .26456E-2
MEAN_MOTION_DDOT = 0

CCSDS_OMM_VERS = 2.0
CREATION_DATE  = 
ORIGINATOR     = 

OBJECT_NAME    = STARLINK-36700
OBJECT_ID      = 2026-022Q
CENTER_NAME    = EARTH
REF_FRAME      = TEME
TIME_SYSTEM    = UTC
MEAN_ELEMENT_THEORY = SGP/SGP4

EPOCH          = 2026-02-26T01:59:32.426880
MEAN_MOTION    = 15.75474529
ECCENTRICITY   = .000124
INCLINATION    = 97.2849
RA_OF_ASC_NODE = 90.5158
ARG_OF_PERICENTER = 23.3945
MEAN_ANOMALY   = 336.7376

EPHEMERIS_TYPE = 0
CLASSIFICATION_TYPE = U
NORAD_CAT_ID   = 67662
ELEMENT_SET_NO = 999
REV_AT_EPOCH   = 372
BSTAR          = .1772E-2
MEAN_MOTION_DOT = .276285E-2
MEAN_MOTION_DDOT = 0

CCSDS_OMM_VERS = 2.0
CREATION_DATE  = 
ORIGINATOR     = 

OBJECT_NAME    = STARLINK-36675
OBJECT_ID      = 2026-022R
CENTER_NAME    = EARTH
REF_FRAME      = TEME
TIME_SYSTEM    = UTC
MEAN_ELEMENT_THEORY = SGP/SGP4

EPOCH          = 2026-02-26T02:01:33.565728
MEAN_MOTION    = 15.75229817
ECCENTRICITY   = .0000452
INCLINATION    = 97.2855
RA_OF_ASC_NODE = 90.5134
ARG_OF_PERICENTER = 211.3244
MEAN_ANOMALY   = 148.7994

EPHEMERIS_TYPE = 0
CLASSIFICATION_TYPE = U
NORAD_CAT_ID   = 67663
ELEMENT_SET_NO = 999
REV_AT_EPOCH   = 372
BSTAR          = .14946E-2
MEAN_MOTION_DOT = .229296E-2
MEAN_MOTION_DDOT = 0

CCSDS_OMM_VERS = 2.0
CREATION_DATE  = 
ORIGINATOR     = 

OBJECT_NAME    = STARLINK-36404
OBJECT_ID      = 2026-022S
CENTER_NAME    = EARTH
REF_FRAME      = TEME
TIME_SYSTEM    = UTC
MEAN_ELEMENT_THEORY = SGP/SGP4

EPOCH          = 2026-02-26T01:56:59.897184
MEAN_MOTION    = 15.75259264
ECCENTRICITY   = .0001602
INCLINATION    = 97.2857
RA_OF_ASC_NODE = 90.5175
ARG_OF_PERICENTER = 92.3143
MEAN_ANOMALY   = 267.8306

EPHEMERIS_TYPE = 0
CLASSIFICATION_TYPE = U
NORAD_CAT_ID   = 67664
ELEMENT_SET_NO = 999
REV_AT_EPOCH   = 372
BSTAR          = .13369E-2
MEAN_MOTION_DOT = .204747E-2
MEAN_MOTION_DDOT = 0

CCSDS_OMM_VERS = 2.0
CREATION_DATE  = 
ORIGINATOR     = 

OBJECT_NAME    = STARLINK-36399
OBJECT_ID      = 2026-022T
CENTER_NAME    = EARTH
REF_FRAME      = TEME
TIME_SYSTEM    = UTC
MEAN_ELEMENT_THEORY = SGP/SGP4

EPOCH          = 2026-02-26T01:55:59.092320
MEAN_MOTION    = 15.75219722
ECCENTRICITY   = .0001549
INCLINATION    = 97.2856
RA_OF_ASC_NODE = 90.5182
ARG_OF_PERICENTER = 103.3592
MEAN_ANOMALY   = 256.7846

EPHEMERIS_TYPE = 0
CLASSIFICATION_TYPE = U
NORAD_CAT_ID   = 67665
ELEMENT_SET_NO = 999
REV_AT_EPOCH   = 372
BSTAR          = .19479E-2
MEAN_MOTION_DOT = .301288E-2
MEAN_MOTION_DDOT = 0

CCSDS_OMM_VERS = 2.0
CREATION_DATE  = 
ORIGINATOR     = 

OBJECT_NAME    = STARLINK-36365
OBJECT_ID      = 2026-022U
CENTER_NAME    = EARTH
REF_FRAME      = TEME
TIME_SYSTEM    = UTC
MEAN_ELEMENT_THEORY = SGP/SGP4

EPOCH          = 2026-02-26T01:53:57.325344
MEAN_MOTION    = 15.75439787
ECCENTRICITY   = .0001616
INCLINATION    = 97.2857
RA_OF_ASC_NODE = 90.5219
ARG_OF_PERICENTER = 25.9258
MEAN_ANOMALY   = 334.2088

EPHEMERIS_TYPE = 0
CLASSIFICATION_TYPE = U
NORAD_CAT_ID   = 67666
ELEMENT_SET_NO = 999
REV_AT_EPOCH   = 372
BSTAR          = .159E-2
MEAN_MOTION_DOT = .24666E-2
MEAN_MOTION_DDOT = 0

CCSDS_OMM_VERS = 2.0
CREATION_DATE  = 
ORIGINATOR     = 

OBJECT_NAME    = STARLINK-36622
OBJECT_ID      = 2026-022V
CENTER_NAME    = EARTH
REF_FRAME      = TEME
TIME_SYSTEM    = UTC
MEAN_ELEMENT_THEORY = SGP/SGP4

EPOCH          = 2026-02-26T01:51:24.746400
MEAN_MOTION    = 15.75423296
ECCENTRICITY   = .0001238
INCLINATION    = 97.2856
RA_OF_ASC_NODE = 90.5237
ARG_OF_PERICENTER = 35.8027
MEAN_ANOMALY   = 324.3321

EPHEMERIS_TYPE = 0
CLASSIFICATION_TYPE = U
NORAD_CAT_ID   = 67667
ELEMENT_SET_NO = 999
REV_AT_EPOCH   = 372
BSTAR          = .14737E-2
MEAN_MOTION_DOT = .227933E-2
MEAN_MOTION_DDOT = 0

CCSDS_OMM_VERS = 2.0
CREATION_DATE  = 
ORIGINATOR     = 

OBJECT_NAME    = STARLINK-36625
OBJECT_ID      = 2026-022W
CENTER_NAME    = EARTH
REF_FRAME      = TEME
TIME_SYSTEM    = UTC
MEAN_ELEMENT_THEORY = SGP/SGP4

EPOCH          = 2026-02-26T01:49:22.770336
MEAN_MOTION    = 15.75221460
ECCENTRICITY   = .0003241
INCLINATION    = 97.2850
RA_OF_ASC_NODE = 90.5242
ARG_OF_PERICENTER = 337.9250
MEAN_ANOMALY   = 22.1875

EPHEMERIS_TYPE = 0
CLASSIFICATION_TYPE = U
NORAD_CAT_ID   = 67668
ELEMENT_SET_NO = 999
REV_AT_EPOCH   = 372
BSTAR          = .76648E-3
MEAN_MOTION_DOT = .115941E-2
MEAN_MOTION_DDOT = 0

CCSDS_OMM_VERS = 2.0
CREATION_DATE  = 
ORIGINATOR     = 

OBJECT_NAME    = STARLINK-36639
OBJECT_ID      = 2026-022X
CENTER_NAME    = EARTH
REF_FRAME      = TEME
TIME_SYSTEM    = UTC
MEAN_ELEMENT_THEORY = SGP/SGP4

EPOCH          = 2026-02-26T01:46:50.155104
MEAN_MOTION    = 15.75258531
ECCENTRICITY   = .0001025
INCLINATION    = 97.2859
RA_OF_ASC_NODE = 90.5264
ARG_OF_PERICENTER = 81.1747
MEAN_ANOMALY   = 278.9634

EPHEMERIS_TYPE = 0
CLASSIFICATION_TYPE = U
NORAD_CAT_ID   = 67669
ELEMENT_SET_NO = 999
REV_AT_EPOCH   = 372
BSTAR          = .13855E-2
MEAN_MOTION_DOT = .212379E-2
MEAN_MOTION_DDOT = 0

CCSDS_OMM_VERS = 2.0
CREATION_DATE  = 
ORIGINATOR     = 

OBJECT_NAME    = STARLINK-36596
OBJECT_ID      = 2026-022Y
CENTER_NAME    = EARTH
REF_FRAME      = TEME
TIME_SYSTEM    = UTC
MEAN_ELEMENT_THEORY = SGP/SGP4

EPOCH          = 2026-02-26T01:44:17.990016
MEAN_MOTION    = 15.75398022
ECCENTRICITY   = .0000765
INCLINATION    = 97.2859
RA_OF_ASC_NODE = 90.5293
ARG_OF_PERICENTER = 21.6018
MEAN_ANOMALY   = 338.5280

EPHEMERIS_TYPE = 0
CLASSIFICATION_TYPE = U
NORAD_CAT_ID   = 67670
ELEMENT_SET_NO = 999
REV_AT_EPOCH   = 372
BSTAR          = .13516E-2
MEAN_MOTION_DOT = .208334E-2
MEAN_MOTION_DDOT = 0

CCSDS_OMM_VERS = 2.0
CREATION_DATE  = 
ORIGINATOR     = 

OBJECT_NAME    = STARLINK-36297
OBJECT_ID      = 2026-022Z
CENTER_NAME    = EARTH
REF_FRAME      = TEME
TIME_SYSTEM    = UTC
MEAN_ELEMENT_THEORY = SGP/SGP4

EPOCH          = 2026-02-26T01:41:14.827200
MEAN_MOTION    = 15.75167512
ECCENTRICITY   = .0001438
INCLINATION    = 97.2860
RA_OF_ASC_NODE = 90.5319
ARG_OF_PERICENTER = 73.1183
MEAN_ANOMALY   = 287.0240

EPHEMERIS_TYPE = 0
CLASSIFICATION_TYPE = U
NORAD_CAT_ID   = 67671
ELEMENT_SET_NO = 999
REV_AT_EPOCH   = 372
BSTAR          = .13531E-2
MEAN_MOTION_DOT = .20644E-2
MEAN_MOTION_DDOT = 0

CCSDS_OMM_VERS = 2.0
CREATION_DATE  = 
ORIGINATOR     = 

OBJECT_NAME    = STARLINK-36616
OBJECT_ID      = 2026-022AA
CENTER_NAME    = EARTH
REF_FRAME      = TEME
TIME_SYSTEM    = UTC
MEAN_ELEMENT_THEORY = SGP/SGP4

EPOCH          = 2026-02-26T01:43:16.768704
MEAN_MOTION    = 15.75242814
ECCENTRICITY   = .0001381
INCLINATION    = 97.2857
RA_OF_ASC_NODE = 90.5297
ARG_OF_PERICENTER = 113.5935
MEAN_ANOMALY   = 246.5476

EPHEMERIS_TYPE = 0
CLASSIFICATION_TYPE = U
NORAD_CAT_ID   = 67672
ELEMENT_SET_NO = 999
REV_AT_EPOCH   = 372
BSTAR          = .2078E-2
MEAN_MOTION_DOT = .322548E-2
MEAN_MOTION_DDOT = 0

