STARLINK-36674          
1 67661U 26022P   26057.08513007  .00264560  00000+0  17137-2 0  9995
2 67661  97.2846  90.5129 0001587 118.6193 241.5232 15.75277583  3721
STARLINK-36700          
1 67662U 26022Q   26057.08301420  .00276285  00000+0  17720-2 0  9995
2 67662  97.2849  90.5158 0001240  23.3945 336.7376 15.75474529  3725
STARLINK-36675          
1 67663U 26022R   26057.08441627  .00229296  00000+0  14946-2 0  9997
2 67663  97.2855  90.5134 0000452 211.3244 148.7994 15.75229817  3727
STARLINK-36404          
1 67664U 26022S   26057.08124881  .00204747  00000+0  13369-2 0  9990
2 67664  97.2857  90.5175 0001602  92.3143 267.8306 15.75259264  3727
STARLINK-36399          
1 67665U 26022T   26057.08054505  .00301288  00000+0  19479-2 0  9992
2 67665  97.2856  90.5182 0001549 103.3592 256.7846 15.75219722  3727
STARLINK-36365          
1 67666U 26022U   26057.07913571  .00246660  00000+0  15900-2 0  9996
2 67666  97.2857  90.5219 0001616  25.9258 334.2088 15.75439787  3728
STARLINK-36622          
1 67667U 26022V   26057.07736975  .00227933  00000+0  14737-2 0  9997
2 67667  97.2856  90.5237 0001238  35.8027 324.3321 15.75423296  3720
STARLINK-36625          
1 67668U 26022W   26057.07595799  .00115941  00000+0  76648-3 0  9990
2 67668  97.2850  90.5242 0003241 337.9250  22.1875 15.75221460  3727
STARLINK-36639          
1 67669U 26022X   26057.07419161  .00212379  00000+0  13855-2 0  9992
2 67669  97.2859  90.5264 0001025  81.1747 278.9634 15.75258531  3721
STARLINK-36596          
1 67670U 26022Y   26057.07243044  .00208334  00000+0  13516-2 0  9999
2 67670  97.2859  90.5293 0000765  21.6018 338.5280 15.75398022  3725
STARLINK-36297          
1 67671U 26022Z   26057.07031050  .00206440  00000+0  13531-2 0  9995
2 67671  97.2860  90.5319 0001438  73.1183 287.0240 15.75167512  3722
STARLINK-36616          
1 67672U 26022AA  26057.07172186  .00322548  00000+0  20780-2 0  9994
2 67672  97.2857  90.5297 0001381 113.5935 246.5476 15.75242814  3725
